{
  "type": "FeatureCollection",
  "features": [
    {
      "type": "Feature",
      "properties": {
        "norad_id": 34962,
        "name": "COSMOS 2251 DEB",
        "group": "cosmos-2251-debris",
        "lat": -71.83891060264081,
        "lon": 77.60296248012459,
        "alt_km": 735.2051587139304,
        "timestamp": "2025-12-10T21:43:22.486656+00:00",
        "meta_object_name": "COSMOS 2251 DEB",
        "meta_object_id": "1993-036AER",
        "meta_epoch": "2025-12-10T13:52:41.170656",
        "meta_mean_motion": 14.46507093,
        "meta_eccentricity": 0.0018754,
        "meta_inclination": 74.0294,
        "meta_ra_of_asc_node": 197.402,
        "meta_arg_of_pericenter": 310.673,
        "meta_mean_anomaly": 49.2798,
        "meta_ephemeris_type": 0,
        "meta_classification_type": "U",
        "meta_norad_cat_id": 34962,
        "meta_element_set_no": 999,
        "meta_rev_at_epoch": 87547,
        "meta_bstar": 0.00061582448,
        "meta_mean_motion_dot": 2.195e-05,
        "meta_mean_motion_ddot": 0,
        "tle_line1": "1 34962U 93036AER 25344.57825429  .00002195  00000+0  61582-3 0  9996",
        "tle_line2": "2 34962  74.0294 197.4020 0018754 310.6730  49.2798 14.46507093875479"
      },
      "geometry": {
        "type": "Point",
        "coordinates": [
          77.60296248012459,
          -71.83891060264081
        ]
      }
    },
    {
      "type": "Feature",
      "properties": {
        "norad_id": 34963,
        "name": "COSMOS 2251 DEB",
        "group": "cosmos-2251-debris",
        "lat": 48.221242205921165,
        "lon": -152.34403645193441,
        "alt_km": 729.5688799210147,
        "timestamp": "2025-12-10T21:43:22.486666+00:00",
        "meta_object_name": "COSMOS 2251 DEB",
        "meta_object_id": "1993-036AES",
        "meta_epoch": "2025-12-08T12:52:00.806016",
        "meta_mean_motion": 14.51014391,
        "meta_eccentricity": 0.0042597,
        "meta_inclination": 74.1718,
        "meta_ra_of_asc_node": 50.5866,
        "meta_arg_of_pericenter": 247.8405,
        "meta_mean_anomaly": 111.8233,
        "meta_ephemeris_type": 0,
        "meta_classification_type": "U",
        "meta_norad_cat_id": 34963,
        "meta_element_set_no": 999,
        "meta_rev_at_epoch": 86740,
        "meta_bstar": 0.0019565,
        "meta_mean_motion_dot": 7.813e-05,
        "meta_mean_motion_ddot": 0,
        "tle_line1": "1 34963U 93036AES 25342.53612044  .00007813  00000+0  19565-2 0  9993",
        "tle_line2": "2 34963  74.1718  50.5866 0042597 247.8405 111.8233 14.51014391867405"
      },
      "geometry": {
        "type": "Point",
        "coordinates": [
          -152.34403645193441,
          48.221242205921165
        ]
      }
    },
    {
      "type": "Feature",
      "properties": {
        "norad_id": 34964,
        "name": "COSMOS 2251 DEB",
        "group": "cosmos-2251-debris",
        "lat": 56.950064072014634,
        "lon": 144.81858178551772,
        "alt_km": 884.005020950236,
        "timestamp": "2025-12-10T21:43:22.486676+00:00",
        "meta_object_name": "COSMOS 2251 DEB",
        "meta_object_id": "1993-036AET",
        "meta_epoch": "2025-12-06T09:08:23.227296",
        "meta_mean_motion": 14.00561346,
        "meta_eccentricity": 0.02131727,
        "meta_inclination": 73.9719,
        "meta_ra_of_asc_node": 358.9078,
        "meta_arg_of_pericenter": 218.6047,
        "meta_mean_anomaly": 139.9683,
        "meta_ephemeris_type": 0,
        "meta_classification_type": "U",
        "meta_norad_cat_id": 34964,
        "meta_element_set_no": 999,
        "meta_rev_at_epoch": 84389,
        "meta_bstar": 0.0026176283,
        "meta_mean_motion_dot": 4.714e-05,
        "meta_mean_motion_ddot": 0,
        "tle_line1": "1 34964U 93036AET 25340.38082439  .00004714  00000+0  26176-2 0  9997",
        "tle_line2": "2 34964  73.9719 358.9078 0213172 218.6047 139.9683 14.00561346843899"
      },
      "geometry": {
        "type": "Point",
        "coordinates": [
          144.81858178551772,
          56.950064072014634
        ]
      }
    },
    {
      "type": "Feature",
      "properties": {
        "norad_id": 34965,
        "name": "COSMOS 2251 DEB",
        "group": "cosmos-2251-debris",
        "lat": -51.12623077487695,
        "lon": -27.31993675754864,
        "alt_km": 719.4342941483083,
        "timestamp": "2025-12-10T21:43:22.486686+00:00",
        "meta_object_name": "COSMOS 2251 DEB",
        "meta_object_id": "1993-036AEU",
        "meta_epoch": "2025-12-10T04:04:15.052224",
        "meta_mean_motion": 14.48695429,
        "meta_eccentricity": 0.00265264,
        "meta_inclination": 74.0504,
        "meta_ra_of_asc_node": 133.2783,
        "meta_arg_of_pericenter": 260.9335,
        "meta_mean_anomaly": 98.8822,
        "meta_ephemeris_type": 0,
        "meta_classification_type": "U",
        "meta_norad_cat_id": 34965,
        "meta_element_set_no": 999,
        "meta_rev_at_epoch": 87076,
        "meta_bstar": 0.00053021264,
        "meta_mean_motion_dot": 1.979e-05,
        "meta_mean_motion_ddot": 0,
        "tle_line1": "1 34965U 93036AEU 25344.16961866  .00001979  00000+0  53021-3 0  9998",
        "tle_line2": "2 34965  74.0504 133.2783 0026526 260.9335  98.8822 14.48695429870762"
      },
      "geometry": {
        "type": "Point",
        "coordinates": [
          -27.31993675754864,
          -51.12623077487695
        ]
      }
    },
    {
      "type": "Feature",
      "properties": {
        "norad_id": 34967,
        "name": "COSMOS 2251 DEB",
        "group": "cosmos-2251-debris",
        "lat": 5.205432952290576,
        "lon": 75.78404671224547,
        "alt_km": 763.8009213976129,
        "timestamp": "2025-12-10T21:43:22.486696+00:00",
        "meta_object_name": "COSMOS 2251 DEB",
        "meta_object_id": "1993-036AEW",
        "meta_epoch": "2025-12-08T12:23:52.050624",
        "meta_mean_motion": 14.44233301,
        "meta_eccentricity": 0.00378,
        "meta_inclination": 73.9938,
        "meta_ra_of_asc_node": 261.7361,
        "meta_arg_of_pericenter": 49.0398,
        "meta_mean_anomaly": 311.4019,
        "meta_ephemeris_type": 0,
        "meta_classification_type": "U",
        "meta_norad_cat_id": 34967,
        "meta_element_set_no": 999,
        "meta_rev_at_epoch": 64896,
        "meta_bstar": 0.0012271,
        "meta_mean_motion_dot": 4.227e-05,
        "meta_mean_motion_ddot": 0,
        "tle_line1": "1 34967U 93036AEW 25342.51657466  .00004227  00000+0  12271-2 0  9995",
        "tle_line2": "2 34967  73.9938 261.7361 0037800  49.0398 311.4019 14.44233301648964"
      },
      "geometry": {
        "type": "Point",
        "coordinates": [
          75.78404671224547,
          5.205432952290576
        ]
      }
    },
    {
      "type": "Feature",
      "properties": {
        "norad_id": 34968,
        "name": "COSMOS 2251 DEB",
        "group": "cosmos-2251-debris",
        "lat": -65.55607702568474,
        "lon": -148.45650702504096,
        "alt_km": 693.5789930091314,
        "timestamp": "2025-12-10T21:43:22.486706+00:00",
        "meta_object_name": "COSMOS 2251 DEB",
        "meta_object_id": "1993-036AEX",
        "meta_epoch": "2025-12-10T10:31:44.469696",
        "meta_mean_motion": 14.59400181,
        "meta_eccentricity": 0.00865269,
        "meta_inclination": 74.0391,
        "meta_ra_of_asc_node": 251.4552,
        "meta_arg_of_pericenter": 12.3996,
        "meta_mean_anomaly": 347.9269,
        "meta_ephemeris_type": 0,
        "meta_classification_type": "U",
        "meta_norad_cat_id": 34968,
        "meta_element_set_no": 999,
        "meta_rev_at_epoch": 88444,
        "meta_bstar": 0.00028935031,
        "meta_mean_motion_dot": 1.412e-05,
        "meta_mean_motion_ddot": 0,
        "tle_line1": "1 34968U 93036AEX 25344.43870914  .00001412  00000+0  28935-3 0  9992",
        "tle_line2": "2 34968  74.0391 251.4552 0086526  12.3996 347.9269 14.59400181884448"
      },
      "geometry": {
        "type": "Point",
        "coordinates": [
          -148.45650702504096,
          -65.55607702568474
        ]
      }
    },
    {
      "type": "Feature",
      "properties": {
        "norad_id": 34969,
        "name": "COSMOS 2251 DEB",
        "group": "cosmos-2251-debris",
        "lat": -19.373382697214442,
        "lon": -147.71801274597908,
        "alt_km": 748.2259595485466,
        "timestamp": "2025-12-10T21:43:22.486743+00:00",
        "meta_object_name": "COSMOS 2251 DEB",
        "meta_object_id": "1993-036AEY",
        "meta_epoch": "2025-12-09T11:16:06.111552",
        "meta_mean_motion": 14.32248944,
        "meta_eccentricity": 0.00738203,
        "meta_inclination": 74.0146,
        "meta_ra_of_asc_node": 29.119,
        "meta_arg_of_pericenter": 163.1468,
        "meta_mean_anomaly": 197.2162,
        "meta_ephemeris_type": 0,
        "meta_classification_type": "U",
        "meta_norad_cat_id": 34969,
        "meta_element_set_no": 999,
        "meta_rev_at_epoch": 65090,
        "meta_bstar": 0.00049233942,
        "meta_mean_motion_dot": 1.343e-05,
        "meta_mean_motion_ddot": 0,
        "tle_line1": "1 34969U 93036AEY 25343.46951518  .00001343  00000+0  49234-3 0  9993",
        "tle_line2": "2 34969  74.0146  29.1190 0073820 163.1468 197.2162 14.32248944650905"
      },
      "geometry": {
        "type": "Point",
        "coordinates": [
          -147.71801274597908,
          -19.373382697214442
        ]
      }
    }
  ]
}